STARLINK-3190           
1 49766U 21115AU  26068.45620761 -.00001128  00000+0 -52808-4 0  9995
2 49766  53.2153 140.1784 0001390  86.6291 273.4860 15.08838372235648
DISKSAT C               
1 67219U 25305A   26068.80315184  .00011541  00000+0  75564-3 0  9993
2 67219  45.0017 250.1278 0004534 310.7706  49.2776 15.07852977 12312
